[{"OBJECT_NAME":"DEKART","OBJECT_ID":"2020-068H","EPOCH":"2026-03-09T23:59:57.066720","MEAN_MOTION":15.34869301,"ECCENTRICITY":0.00073753,"INCLINATION":97.8782,"RA_OF_ASC_NODE":71.3423,"ARG_OF_PERICENTER":278.3856,"MEAN_ANOMALY":81.655,"EPHEMERIS_TYPE":0,"CLASSIFICATION_TYPE":"U","NORAD_CAT_ID":46493,"ELEMENT_SET_NO":999,"REV_AT_EPOCH":30054,"BSTAR":0.00048248993,"MEAN_MOTION_DOT":0.00016256,"MEAN_MOTION_DDOT":0},{"OBJECT_NAME":"HUYGENS","OBJECT_ID":"2023-001CN","EPOCH":"2026-03-09T22:29:59.612064","MEAN_MOTION":15.38188083,"ECCENTRICITY":0.00114239,"INCLINATION":97.3353,"RA_OF_ASC_NODE":136.098,"ARG_OF_PERICENTER":84.7178,"MEAN_ANOMALY":275.537,"EPHEMERIS_TYPE":0,"CLASSIFICATION_TYPE":"U","NORAD_CAT_ID":55093,"ELEMENT_SET_NO":999,"REV_AT_EPOCH":17710,"BSTAR":0.00030435197,"MEAN_MOTION_DOT":0.00011392,"MEAN_MOTION_DDOT":0}]
