DEKART                  
1 46493U 20068H   26068.99996605  .00016256  00000+0  48249-3 0  9996
2 46493  97.8782  71.3423 0007375 278.3856  81.6550 15.34869301300547
HUYGENS                 
1 55093U 23001CN  26068.93749551  .00011392  00000+0  30435-3 0  9996
2 55093  97.3353 136.0980 0011423  84.7178 275.5370 15.38188083177107
